CORVUS BC4              
1 43767U 18099K   26136.82657509  .00002873  00000+0  16983-3 0  9993
2 43767  97.4090 180.7275 0010053 107.4705 252.7626 15.12219231407661
M2 PATHFINDER           
1 45727U 20037E   26136.65673418  .00001356  00000+0  10127-3 0  9993
2 45727  97.8163 327.5363 0009935 257.6999 102.3114 15.04530356320754
NETSAT-4                
1 46504U 20068U   26136.74313825  .00015447  00000+0  35494-3 0  9994
2 46504  97.8609 142.4855 0007530  80.4936 279.7161 15.42756823310925
NETSAT-3                
1 46505U 20068V   26136.72479389  .00015182  00000+0  36342-3 0  9990
2 46505  97.8658 140.7232 0007532  93.4372 266.7735 15.41529090310836
NETSAT-1                
1 46506U 20068W   26136.82931367  .00010472  00000+0  32241-3 0  9992
2 46506  97.8747 135.5287 0006991 112.6519 247.5463 15.33827700310490
NETSAT-2                
1 46507U 20068X   26136.75856928  .00019665  00000+0  42429-3 0  9996
2 46507  97.8624 142.2898 0006283 102.6822 257.5128 15.44585399310887
GREENCUBE (IO-117)      
1 53109U 22080E   26136.43447080 -.00000003  00000+0  00000+0 0  9990
2 53109  70.1434 309.2922 0008816 296.9744  63.0015  6.42583311 90029
SITRO-AIS 5 (KATYS)     
1 57176U 23091L   26136.85420260  .00009945  00000+0  35858-3 0  9994
2 57176  97.5079 200.4715 0011079 205.2204 154.8496 15.28683085159555
SITRO-AIS 6 (CHIRKIN)   
1 57192U 23091AC  26136.82787279  .00007672  00000+0  30712-3 0  9994
2 57192  97.5086 199.7267 0011222 208.7567 151.3053 15.25294697159503
SITRO-AIS 8 (ANOKHIN)   
1 57193U 23091AD  26136.85924356  .00012073  00000+0  40206-3 0  9997
2 57193  97.5074 201.9413 0010418 200.5360 159.5463 15.31227059159653
SITRO-AIS 7 (FARTUSHNIY)
1 57194U 23091AE  26136.75914605  .00007652  00000+0  30906-3 0  9996
2 57194  97.5084 199.4987 0011043 209.9924 150.0682 15.24998289159488
SITRO-AIS 10 (BURDAEV)  
1 57199U 23091AK  26136.82372127  .00016360  00000+0  44846-3 0  9990
2 57199  97.5098 206.6452 0007384 173.2188 186.9157 15.37348921159946
SITRO-AIS 9 (SHCHUKIN)  
1 57201U 23091AM  26136.84055742  .00015717  00000+0  43726-3 0  9998
2 57201  97.5096 206.4161 0007623 173.8752 186.2587 15.36895101159937
SITRO-AIS 12 (SMIRENNIY)
1 57204U 23091AQ  26136.83703769  .00016441  00000+0  45308-3 0  9992
2 57204  97.5109 206.8602 0007417 167.9399 192.2024 15.37181320159958
SITRO-AIS 11 (SHEFFER)  
1 57208U 23091AU  26136.85880954  .00016955  00000+0  46127-3 0  9990
2 57208  97.5105 207.1102 0007313 167.3779 192.7650 15.37575063159971
SITRO-AIS 25            
1 59066U 24039R   26136.88448451  .00003919  00000+0  30479-3 0  9991
2 59066  95.3921 213.5847 0147393  77.8387 283.9305 14.93283907120058
SITRO-AIS 26            
1 59067U 24039S   26136.88163810  .00003936  00000+0  30748-3 0  9993
2 59067  95.3921 213.4869 0147697  78.3793 283.3968 14.93086547120045
SITRO-AIS 27            
1 59068U 24039T   26136.86058795  .00003387  00000+0  26278-3 0  9990
2 59068  95.3924 213.7298 0146695  77.1272 284.6295 14.93497939120064
SITRO-AIS 28            
1 59071U 24039U   26136.83875348  .00003952  00000+0  30578-3 0  9998
2 59071  95.3927 213.7601 0146770  77.0776 284.6796 14.93535060120065
GRBBETA                 
1 60237U 24128C   26136.02849504  .00002788  00000+0  19903-3 0  9994
2 60237  61.9902 329.0722 0045004 128.0351 232.4817 15.06357396101425
OOV-CUBE (TUBSAT-30)    
1 60240U 24128F   26136.04836897  .00001460  00000+0  12232-3 0  9995
2 60240  61.9948 337.6259 0048616 126.7646 233.7923 15.02598646101280
ROBUSTA-3A (MEDITERRAN*)
1 60243U 24128J   26136.84205076  .00006526  00000+0  39073-3 0  9995
2 60243  61.9865 319.0495 0045567 122.1450 238.4079 15.11146818101680
LASARSAT                
1 62391U 24247Q   26136.88298946  .00025764  00000+0  55244-3 0  9998
2 62391  44.9753  77.8428 0005188 149.7413 210.3776 15.44323500 78471
CROCUBE                 
1 62394U 24247T   26136.85156071  .00029231  00000+0  59219-3 0  9999
2 62394  44.9724  75.8233 0004879 152.2127 207.9024 15.45929311 78494
FORESAIL-1 PRIME        
1 66778U 25276DS  26136.63067843  .00003545  00000+0  17567-3 0  9996
2 66778  97.4210 210.4848 0002164 174.3954 185.7305 15.18390048 25614
KNACKSAT-2              
1 67683U 98067XZ  26136.86666601  .00035455  00000+0  48286-3 0  9999
2 67683  51.6291  91.6675 0012370  83.7858 276.4542 15.57110676 15399
